NORAD_CAT_ID,OBJECT_NAME,OBJECT_TYPE,EPOCH,MEAN_MOTION,ECCENTRICITY,INCLINATION,RA_OF_ASC_NODE,ARG_OF_PERICENTER,MEAN_ANOMALY,BSTAR,MEAN_MOTION_DOT,MEAN_MOTION_DDOT,TLE_LINE0,TLE_LINE1,TLE_LINE2,SEMIMAJOR_AXIS,PERIOD,APOGEE,PERIGEE,DECAYED
55954.0,STARLINK-5892,PAYLOAD,2023-04-17 08:50:41,15.69910993,0.0002575,70.0019,95.0199,258.9248,101.1658,-2.741e-05,-3.504e-05,0.0,0 STARLINK-5892,1 55954U 23037AS  23107.36853424 -.00003504  00000-0 -27410-4 0  9993,2 55954  70.0019  95.0199 0002575 258.9248 101.1658 15.69910993  4993,6737.289,91.725,360.888,357.419,0.0
55954.0,STARLINK-5892,PAYLOAD,2023-04-17 16:29:26,15.69919691,0.0002757,70.0012,94.1218,264.2162,95.8719,1.8767e-06,1.3e-07,0.0,0 STARLINK-5892,1 55954U 23037AS  23107.68711621  .00000013  00000-0  18767-5 0  9996,2 55954  70.0012  94.1218 0002757 264.2162  95.8719 15.69919691  5043,6737.264,91.724,360.986,357.271,0.0
55954.0,STARLINK-5892,PAYLOAD,2023-04-18 09:18:42,15.69936998,0.0003086,70.0031,92.1533,265.7517,94.3326,0.00010118,0.00011977,0.0,0 STARLINK-5892,1 55954U 23037AS  23108.38799622  .00011977  00000-0  10118-3 0  9992,2 55954  70.0031  92.1533 0003086 265.7517  94.3326 15.69936998  5157,6737.214,91.723,361.158,357.0,0.0
55954.0,STARLINK-5892,PAYLOAD,2023-04-19 08:14:59,15.69938843,0.000347,70.0003,89.4639,266.279,93.8009,0.00011328,0.00013438,0.0,0 STARLINK-5892,1 55954U 23037AS  23109.34374540  .00013438  00000-0  11328-3 0  9995,2 55954  70.0003  89.4639 0003470 266.2790  93.8009 15.69938843  5308,6737.209,91.723,361.412,356.736,0.0
55954.0,STARLINK-5892,PAYLOAD,2023-04-20 08:43:02,15.69893849,0.0002877,70.0036,86.5982,281.9636,78.1237,-7.9988e-05,-9.806e-05,0.0,0 STARLINK-5892,1 55954U 23037AS  23110.36322188 -.00009806  00000-0 -79988-4 0  9993,2 55954  70.0036  86.5982 0002877 281.9636  78.1237 15.69893849  5468,6737.338,91.726,361.141,357.264,0.0
55954.0,STARLINK-5892,PAYLOAD,2023-04-21 06:07:33,15.69946169,0.0003337,70.0009,84.0883,267.919,92.1623,0.00024814,0.00029757,0.0,0 STARLINK-5892,1 55954U 23037AS  23111.25525008  .00029757  00000-0  24814-3 0  9990,2 55954  70.0009  84.0883 0003337 267.9190  92.1623 15.69946169  5944,6737.188,91.723,361.301,356.805,0.0
55954.0,STARLINK-5892,PAYLOAD,2023-04-21 21:24:56,15.70049258,0.0003091,70.0021,82.2979,268.6538,91.4303,-0.0005166,-0.00062189,0.0,0 STARLINK-5892,1 55954U 23037AS  23111.89231961 -.00062189  00000-0 -51660-3 0  9999,2 55954  70.0021  82.2979 0003091 268.6538  91.4303 15.70049258  5701,6736.893,91.717,360.84,356.676,0.0
55954.0,STARLINK-5892,PAYLOAD,2023-04-21 22:56:41,15.7003334,0.0003664,70.002,82.1181,265.447,94.6308,-0.00053794,-0.00064696,0.0,0 STARLINK-5892,1 55954U 23037AS  23111.95603192 -.00064696  00000-0 -53794-3 0  9990,2 55954  70.0020  82.1181 0003664 265.4470  94.6308 15.70033340  6054,6736.939,91.718,361.272,356.335,0.0
55954.0,STARLINK-5892,PAYLOAD,2023-04-22 09:39:04,15.69998173,0.000323,70.002,80.865,282.2353,77.8481,0.00037248,0.00044952,0.0,0 STARLINK-5892,1 55954U 23037AS  23112.40213963  .00044952  00000-0  37248-3 0  9991,2 55954  70.0020  80.8650 0003230 282.2353  77.8481 15.69998173  6121,6737.039,91.72,361.08,356.728,0.0
55954.0,STARLINK-5892,PAYLOAD,2023-04-23 07:03:37,15.69925786,0.0003188,70.0027,78.3581,248.1404,111.9453,0.00010491,0.00012421,0.0,0 STARLINK-5892,1 55954U 23037AS  23113.29418731  .00012421  00000-0  10491-3 0  9996,2 55954  70.0027  78.3581 0003188 248.1404 111.9453 15.69925786  6267,6737.246,91.724,361.259,356.963,0.0
55954.0,STARLINK-5892,PAYLOAD,2023-04-23 08:35:22,15.69927509,0.0003262,70.0027,78.18,256.6631,103.4201,7.4043e-05,8.701e-05,0.0,0 STARLINK-5892,1 55954U 23037AS  23113.35790393  .00008701  00000-0  74043-4 0  9990,2 55954  70.0027  78.1800 0003262 256.6631 103.4201 15.69927509  5933,6737.241,91.724,361.304,356.909,0.0
55954.0,STARLINK-5892,PAYLOAD,2023-04-23 20:49:23,15.69933722,0.0003161,70.0025,76.7465,253.9119,106.1729,8.2934e-05,9.775e-05,0.0,0 STARLINK-5892,1 55954U 23037AS  23113.86763626  .00009775  00000-0  82934-4 0  9995,2 55954  70.0025  76.7465 0003161 253.9119 106.1729 15.69933722  6010,6737.224,91.724,361.218,356.959,0.0
55954.0,STARLINK-5892,PAYLOAD,2023-04-24 07:31:38,15.69975723,0.0003111,70.0026,75.4919,255.3762,104.7089,0.00021561,0.00025847,0.0,0 STARLINK-5892,1 55954U 23037AS  23114.31364151  .00025847  00000-0  21561-3 0  9992,2 55954  70.0026  75.4919 0003111 255.3762 104.7089 15.69975723  6421,6737.103,91.721,361.064,356.873,0.0
55954.0,STARLINK-5892,PAYLOAD,2023-04-25 06:27:57,15.69838691,0.0003305,70.0026,72.8049,257.3551,102.7275,6.1558e-05,7.17e-05,0.0,0 STARLINK-5892,1 55954U 23037AS  23115.26941674  .00007170  00000-0  61558-4 0  9998,2 55954  70.0026  72.8049 0003305 257.3551 102.7275 15.69838691  6235,6737.496,91.729,361.587,357.134,0.0
55954.0,STARLINK-5892,PAYLOAD,2023-04-26 06:56:00,15.69987658,0.0003922,70.0015,69.9375,268.1121,91.9626,0.00055724,0.00067516,0.0,0 STARLINK-5892,1 55954U 23037AS  23116.28888941  .00067516  00000-0  55724-3 0  9995,2 55954  70.0015  69.9375 0003922 268.1121  91.9626 15.69987658  6394,6737.069,91.72,361.577,356.292,0.0
55954.0,STARLINK-5892,PAYLOAD,2023-04-26 14:34:44,15.70006656,0.0003701,70.0022,69.0422,266.8363,93.2409,0.00045581,0.00055147,0.0,0 STARLINK-5892,1 55954U 23037AS  23116.60745935  .00055147  00000-0  45581-3 0  9993,2 55954  70.0022  69.0422 0003701 266.8363  93.2409 15.70006656  6446,6737.015,91.719,361.373,356.387,0.0
55954.0,STARLINK-5892,PAYLOAD,2023-04-27 02:48:45,15.69958081,0.0003623,70.004,67.6112,267.684,92.3941,0.00037131,0.00044738,0.0,0 STARLINK-5892,1 55954U 23037AS  23117.11718756  .00044738  00000-0  37131-3 0  9997,2 55954  70.0040  67.6112 0003623 267.6840  92.3941 15.69958081  6861,6737.154,91.722,361.46,356.578,0.0
55954.0,STARLINK-5892,PAYLOAD,2023-04-27 07:24:00,15.69945704,0.0003698,70.0024,67.0734,265.6404,94.4369,6.4216e-05,7.523e-05,0.0,0 STARLINK-5892,1 55954U 23037AS  23117.30833615  .00007523  00000-0  64216-4 0  9996,2 55954  70.0024  67.0734 0003698 265.6404  94.4369 15.69945704  6554,6737.189,91.723,361.546,356.563,0.0
55954.0,STARLINK-5892,PAYLOAD,2023-04-27 21:09:46,15.69943001,0.0004318,70.0033,65.4627,266.0206,94.0497,0.000274,0.00032895,0.0,0 STARLINK-5892,1 55954U 23037AS  23117.88178852  .00032895  00000-0  27400-3 0  9997,2 55954  70.0033  65.4627 0004318 266.0206  94.0497 15.69943001  6985,6737.197,91.723,361.971,356.153,0.0
55954.0,STARLINK-5892,PAYLOAD,2023-04-28 06:20:17,15.69903403,0.0002939,70.0026,64.3862,272.646,87.4399,-1.0502e-05,-1.474e-05,0.0,0 STARLINK-5892,1 55954U 23037AS  23118.26409645 -.00001474  00000-0 -10502-4 0  9994,2 55954  70.0026  64.3862 0002939 272.6460  87.4399 15.69903403  7045,6737.31,91.725,361.155,357.195,0.0
55954.0,STARLINK-5892,PAYLOAD,2023-04-28 20:06:03,15.69936067,0.0003676,70.0016,62.7744,270.4646,89.6128,0.00021429,0.00025647,0.0,0 STARLINK-5892,1 55954U 23037AS  23118.83754269  .00025647  00000-0  21429-3 0  9997,2 55954  70.0016  62.7744 0003676 270.4646  89.6128 15.69936067  7132,6737.217,91.723,361.559,356.605,0.0
55954.0,STARLINK-5892,PAYLOAD,2023-04-29 03:44:49,15.69937699,0.0003495,70.0018,61.8778,269.5901,90.4895,0.00016603,0.0001981,0.0,0 STARLINK-5892,1 55954U 23037AS  23119.15612581  .00019810  00000-0  16603-3 0  9996,2 55954  70.0018  61.8778 0003495 269.5901  90.4895 15.69937699  7181,6737.212,91.723,361.432,356.723,0.0
55954.0,STARLINK-5892,PAYLOAD,2023-04-29 05:16:34,15.69937761,0.0003505,70.0017,61.6985,268.397,91.6824,0.00014753,0.00017574,0.0,0 STARLINK-5892,1 55954U 23037AS  23119.21984226  .00017574  00000-0  14753-3 0  9990,2 55954  70.0017  61.6985 0003505 268.3970  91.6824 15.69937761  6851,6737.212,91.723,361.438,356.716,0.0
55954.0,STARLINK-5892,PAYLOAD,2023-04-29 19:02:20,15.69934841,0.0003057,70.0021,60.0862,263.4286,96.6562,0.00011784,0.00013986,0.0,0 STARLINK-5892,1 55954U 23037AS  23119.79329251  .00013986  00000-0  11784-3 0  9998,2 55954  70.0021  60.0862 0003057 263.4286  96.6562 15.69934841  7289,6737.22,91.724,361.145,357.026,0.0
55954.0,STARLINK-5892,PAYLOAD,2023-04-29 22:05:50,15.69917598,0.000468,70.0021,59.7288,282.8119,77.2554,1.3964e-05,1.466e-05,0.0,0 STARLINK-5892,1 55954U 23037AS  23119.92072880  .00001466  00000-0  13964-4 0  9999,2 55954  70.0021  59.7288 0004680 282.8119  77.2554 15.69917598  7308,6737.27,91.725,362.288,355.982,0.0
55954.0,STARLINK-5892,PAYLOAD,2023-04-30 05:44:36,15.69927232,0.0002917,70.0024,58.8322,255.2527,104.8345,3.3592e-05,3.829e-05,0.0,0 STARLINK-5892,1 55954U 23037AS  23120.23930943  .00003829  00000-0  33592-4 0  9992,2 55954  70.0024  58.8322 0002917 255.2527 104.8345 15.69927232  7354,6737.242,91.724,361.072,357.142,0.0
55954.0,STARLINK-5892,PAYLOAD,2023-04-30 21:02:07,15.69923513,0.00034,70.0013,57.0417,271.7542,88.3264,4.4931e-05,5.193e-05,0.0,0 STARLINK-5892,1 55954U 23037AS  23120.87647990  .00005193  00000-0  44931-4 0  9994,2 55954  70.0013  57.0417 0003400 271.7542  88.3264 15.69923513  7451,6737.253,91.724,361.408,356.827,0.0
55954.0,STARLINK-5892,PAYLOAD,2023-05-01 06:12:38,15.69939035,0.0003339,70.0022,55.9675,269.1001,90.9812,0.00011936,0.00014172,0.0,0 STARLINK-5892,1 55954U 23037AS  23121.25877833  .00014172  00000-0  11936-3 0  9993,2 55954  70.0022  55.9675 0003339 269.1001  90.9812 15.69939035  7517,6737.208,91.723,361.323,356.824,0.0
55954.0,STARLINK-5892,PAYLOAD,2023-05-01 21:30:09,15.69934523,0.0002778,70.003,54.175,265.5924,94.4954,6.8911e-05,8.084e-05,0.0,0 STARLINK-5892,1 55954U 23037AS  23121.89594590  .00008084  00000-0  68911-4 0  9990,2 55954  70.0030  54.1750 0002778 265.5924  94.4954 15.69934523  7277,6737.221,91.724,360.958,357.215,0.0
55954.0,STARLINK-5892,PAYLOAD,2023-05-01 23:01:54,15.69933516,0.0003012,70.0029,53.9955,264.5132,95.572,7.0899e-05,8.324e-05,0.0,0 STARLINK-5892,1 55954U 23037AS  23121.95966212  .00008324  00000-0  70899-4 0  9996,2 55954  70.0029  53.9955 0003012 264.5132  95.5720 15.69933516  7624,6737.224,91.724,361.118,357.06,0.0
